{
  "norad_id": 57965,
  "name": "STARLINK-30524",
  "history": [
    {
      "epoch": "2026-04-12T19:40:42.504960Z",
      "apogee_km": 484.43614091903873,
      "perigee_km": 481.69193495190575,
      "latitude_deg": 2.4158764247340178e-05,
      "longitude_deg": 7.283631362268396,
      "height_km": 482.8851207211353,
      "semi_major_axis_km": 6861.2010379354715,
      "eccentricity": 0.00019998,
      "inclination_deg": 43.0058,
      "raan_deg": 143.4803,
      "arg_perigee_deg": 268.1928,
      "mean_anomaly_deg": 91.8695,
      "mean_motion_rev_day": 15.2757501
    },
    {
      "epoch": "2026-04-14T18:45:23.632128Z",
      "apogee_km": 483.9744489326995,
      "perigee_km": 482.00530551893553,
      "latitude_deg": 2.1085556090986968e-05,
      "longitude_deg": 8.102738073658076,
      "height_km": 482.689708764657,
      "semi_major_axis_km": 6861.126877225817,
      "eccentricity": 0.0001435,
      "inclination_deg": 43.0024,
      "raan_deg": 132.4042,
      "arg_perigee_deg": 274.4954,
      "mean_anomaly_deg": 85.5734,
      "mean_motion_rev_day": 15.27599777
    },
    {
      "epoch": "2026-04-15T08:52:48.755136Z",
      "apogee_km": 484.21878869125703,
      "perigee_km": 481.8386503031634,
      "latitude_deg": 1.6291231001724128e-05,
      "longitude_deg": 152.34401733049918,
      "height_km": 482.60277178294854,
      "semi_major_axis_km": 6861.16571949721,
      "eccentricity": 0.00017345,
      "inclination_deg": 43.0027,
      "raan_deg": 129.0802,
      "arg_perigee_deg": 279.8325,
      "mean_anomaly_deg": 80.2331,
      "mean_motion_rev_day": 15.27586805
    },
    {
      "epoch": "2026-04-16T17:50:05.651808Z",
      "apogee_km": 483.9531757605391,
      "perigee_km": 482.14456716482164,
      "latitude_deg": 4.4175633029264075e-06,
      "longitude_deg": 8.91560336358358,
      "height_km": 482.7649268372356,
      "semi_major_axis_km": 6861.185871462681,
      "eccentricity": 0.0001318,
      "inclination_deg": 43.0026,
      "raan_deg": 121.3256,
      "arg_perigee_deg": 273.8598,
      "mean_anomaly_deg": 86.2103,
      "mean_motion_rev_day": 15.27580075
    },
    {
      "epoch": "2026-04-17T17:22:24.516768Z",
      "apogee_km": 484.20849713856296,
      "perigee_km": 481.76072339288476,
      "latitude_deg": 1.6383675898011183e-05,
      "longitude_deg": 9.33211857874015,
      "height_km": 482.6122038261652,
      "semi_major_axis_km": 6861.121610265724,
      "eccentricity": 0.00017838,
      "inclination_deg": 43.0036,
      "raan_deg": 115.7874,
      "arg_perigee_deg": 277.0316,
      "mean_anomaly_deg": 83.0333,
      "mean_motion_rev_day": 15.27601536
    },
    {
      "epoch": "2026-04-18T16:54:47.166912Z",
      "apogee_km": 484.38226112801294,
      "perigee_km": 481.7571634398928,
      "latitude_deg": 2.80220804958328e-05,
      "longitude_deg": 9.728817649858271,
      "height_km": 482.8072817209833,
      "semi_major_axis_km": 6861.206712283953,
      "eccentricity": 0.0001913,
      "inclination_deg": 43.0073,
      "raan_deg": 110.2452,
      "arg_perigee_deg": 271.7619,
      "mean_anomaly_deg": 88.3014,
      "mean_motion_rev_day": 15.27573115
    },
    {
      "epoch": "2026-04-19T16:27:07.725312Z",
      "apogee_km": 483.79468074485885,
      "perigee_km": 482.28522181557673,
      "latitude_deg": -2.226662710026588e-05,
      "longitude_deg": 10.139088979063315,
      "height_km": 482.94046011155007,
      "semi_major_axis_km": 6861.1769512802175,
      "eccentricity": 0.00011,
      "inclination_deg": 43.003,
      "raan_deg": 104.7079,
      "arg_perigee_deg": 260.5624,
      "mean_anomaly_deg": 99.5103,
      "mean_motion_rev_day": 15.27583054
    },
    {
      "epoch": "2026-04-20T00:17:54.198240Z",
      "apogee_km": 483.71155587836256,
      "perigee_km": 482.2580958307735,
      "latitude_deg": 7.789050746671689e-06,
      "longitude_deg": -109.72265032301121,
      "height_km": 482.87901703817704,
      "semi_major_axis_km": 6861.121825854568,
      "eccentricity": 0.00010592,
      "inclination_deg": 43.0023,
      "raan_deg": 102.862,
      "arg_perigee_deg": 260.691,
      "mean_anomaly_deg": 99.3822,
      "mean_motion_rev_day": 15.27601464
    },
    {
      "epoch": "2026-04-21T15:31:49.647360Z",
      "apogee_km": 483.7947738595767,
      "perigee_km": 482.30864038561504,
      "latitude_deg": 5.1149662782517e-07,
      "longitude_deg": 10.95279620785031,
      "height_km": 483.00183995585746,
      "semi_major_axis_km": 6861.188707122596,
      "eccentricity": 0.0001083,
      "inclination_deg": 43.0022,
      "raan_deg": 93.6297,
      "arg_perigee_deg": 256.4968,
      "mean_anomaly_deg": 103.5763,
      "mean_motion_rev_day": 15.27579128
    },
    {
      "epoch": "2026-04-22T15:04:11.257248Z",
      "apogee_km": 484.122219884297,
      "perigee_km": 482.02406182322375,
      "latitude_deg": 6.350910520441446e-06,
      "longitude_deg": 11.356832603028357,
      "height_km": 483.05687821462504,
      "semi_major_axis_km": 6861.21014085376,
      "eccentricity": 0.0001529,
      "inclination_deg": 43.0034,
      "raan_deg": 88.0905,
      "arg_perigee_deg": 258.642,
      "mean_anomaly_deg": 101.426,
      "mean_motion_rev_day": 15.2757197
    },
    {
      "epoch": "2026-04-23T06:45:44.943552Z",
      "apogee_km": 483.8224667094437,
      "perigee_km": 482.2734855892277,
      "latitude_deg": -1.0361832263245054e-05,
      "longitude_deg": 131.62987787249708,
      "height_km": 482.9861694732977,
      "semi_major_axis_km": 6861.184976149335,
      "eccentricity": 0.00011288,
      "inclination_deg": 43.0018,
      "raan_deg": 84.3984,
      "arg_perigee_deg": 257.9593,
      "mean_anomaly_deg": 102.1132,
      "mean_motion_rev_day": 15.27580374
    },
    {
      "epoch": "2026-04-24T06:18:05.637600Z",
      "apogee_km": 483.83271404744846,
      "perigee_km": 482.2834561972286,
      "latitude_deg": -4.407388304084073e-06,
      "longitude_deg": 132.03794177552672,
      "height_km": 482.9208756096498,
      "semi_major_axis_km": 6861.195085122338,
      "eccentricity": 0.0001129,
      "inclination_deg": 43.0015,
      "raan_deg": 78.8594,
      "arg_perigee_deg": 263.6133,
      "mean_anomaly_deg": 96.459,
      "mean_motion_rev_day": 15.27576998
    },
    {
      "epoch": "2026-04-25T13:41:12.998112Z",
      "apogee_km": 483.902367564986,
      "perigee_km": 482.1678632542107,
      "latitude_deg": 9.382905296175566e-06,
      "longitude_deg": 12.582335312485633,
      "height_km": 482.83606047611204,
      "semi_major_axis_km": 6861.172115409598,
      "eccentricity": 0.0001264,
      "inclination_deg": 43.0031,
      "raan_deg": 71.4734,
      "arg_perigee_deg": 268.4131,
      "mean_anomaly_deg": 91.6576,
      "mean_motion_rev_day": 15.27584669
    },
    {
      "epoch": "2026-04-26T08:31:06.288960Z",
      "apogee_km": 483.93594460354416,
      "perigee_km": 482.1937482307012,
      "latitude_deg": -1.6604633124924262e-05,
      "longitude_deg": 84.90718159391366,
      "height_km": 482.8737818973497,
      "semi_major_axis_km": 6861.201846417122,
      "eccentricity": 0.00012696,
      "inclination_deg": 43.0018,
      "raan_deg": 67.0437,
      "arg_perigee_deg": 267.8852,
      "mean_anomaly_deg": 92.1854,
      "mean_motion_rev_day": 15.2757474
    },
    {
      "epoch": "2026-04-27T20:36:41.268672Z",
      "apogee_km": 483.86677329129725,
      "perigee_km": 482.19127654801105,
      "latitude_deg": 1.828219887778946e-05,
      "longitude_deg": -106.4638178286637,
      "height_km": 482.8220335344324,
      "semi_major_axis_km": 6861.166024919654,
      "eccentricity": 0.0001221,
      "inclination_deg": 43.0014,
      "raan_deg": 58.5507,
      "arg_perigee_deg": 268.8847,
      "mean_anomaly_deg": 91.1865,
      "mean_motion_rev_day": 15.27586703
    },
    {
      "epoch": "2026-04-28T20:09:03.341664Z",
      "apogee_km": 483.9155343602515,
      "perigee_km": 482.2235608256151,
      "latitude_deg": -2.858018154852905e-05,
      "longitude_deg": -106.0631693560055,
      "height_km": 482.87598202102214,
      "semi_major_axis_km": 6861.206547592933,
      "eccentricity": 0.0001233,
      "inclination_deg": 43.0014,
      "raan_deg": 53.0101,
      "arg_perigee_deg": 267.9869,
      "mean_anomaly_deg": 92.0841,
      "mean_motion_rev_day": 15.2757317
    },
    {
      "epoch": "2026-04-29T11:50:36.516480Z",
      "apogee_km": 483.98875853699883,
      "perigee_km": 482.0783342100658,
      "latitude_deg": 5.557792466029025e-07,
      "longitude_deg": 14.210363484699325,
      "height_km": 482.6608293797878,
      "semi_major_axis_km": 6861.170546373532,
      "eccentricity": 0.00013922,
      "inclination_deg": 42.9997,
      "raan_deg": 49.3163,
      "arg_perigee_deg": 278.9974,
      "mean_anomaly_deg": 81.072,
      "mean_motion_rev_day": 15.27585193
    },
    {
      "epoch": "2026-04-30T03:32:11.116896Z",
      "apogee_km": 484.1345946678148,
      "perigee_km": 482.0334143473947,
      "latitude_deg": -1.666436861878944e-05,
      "longitude_deg": 134.47729044848978,
      "height_km": 482.7417686870299,
      "semi_major_axis_km": 6861.221004507604,
      "eccentricity": 0.00015312,
      "inclination_deg": 43.0004,
      "raan_deg": 45.6219,
      "arg_perigee_deg": 276.5094,
      "mean_anomaly_deg": 83.5583,
      "mean_motion_rev_day": 15.27568342
    },
    {
      "epoch": "2026-05-02T10:27:39.445344Z",
      "apogee_km": 484.06597671148575,
      "perigee_km": 482.0501576007555,
      "latitude_deg": -1.491989466172395e-05,
      "longitude_deg": 15.433783866766191,
      "height_km": 482.7303463973089,
      "semi_major_axis_km": 6861.19506715612,
      "eccentricity": 0.0001469,
      "inclination_deg": 43.004,
      "raan_deg": 32.7021,
      "arg_perigee_deg": 275.976,
      "mean_anomaly_deg": 84.0924,
      "mean_motion_rev_day": 15.27577004
    }
  ]
}